IRIDIUM 116             
1 43072U 17083C   24082.15586811  .00000209  00000+0  67505-4 0  9993
2 43072  86.3940 303.4806 0002067  83.5639 276.5792 14.34219112327065
IRIDIUM 130             
1 43073U 17083D   24081.70554511  .00000439  00000+0  14973-3 0  9991
2 43073  86.3949 303.8653 0002282  91.7934 268.3523 14.34219692326947
IRIDIUM 151             
1 43074U 17083E   24082.02901582  .00000142  00000+0  43499-4 0  9999
2 43074  86.3942 303.5732 0001710  85.0536 275.0855 14.34218738327017
IRIDIUM 134             
1 43075U 17083F   24082.13684131  .00000145  00000+0  44735-4 0  9997
2 43075  86.3942 303.5250 0002330  90.1966 269.9497 14.34219054326998
IRIDIUM 137             
1 43076U 17083G   24082.14952490  .00000154  00000+0  47772-4 0  9999
2 43076  86.3943 303.5960 0001907  78.4516 281.6894 14.34217805327060
IRIDIUM 141             
1 43077U 17083H   24081.58503607  .00000145  00000+0  44686-4 0  9990
2 43077  86.3939 303.7094 0002049  89.8192 270.3238 14.34218365326989
IRIDIUM 153             
1 43078U 17083J   24081.88605683  .00000122  00000+0  36502-4 0  9994
2 43078  86.3912 272.0126 0001876 104.0000 256.1404 14.34218165328134
IRIDIUM 131             
1 43079U 17083K   24081.71188712  .00000107  00000+0  31282-4 0  9999
2 43079  86.3945 303.7878 0002052  84.2368 275.9061 14.34218522326931
